ONEWEB-0385             
1 49311U 21090AJ  21318.91667824 -.01089518  00000-0 -88665-1 0  9996
2 49311  87.2338 282.4301 0013640 127.5846  51.9618 15.02527157  3635
ONEWEB-0386             
1 49312U 21090AK  21318.91667824 -.01080747  00000-0 -99196-1 0  9993
2 49312  87.2248 282.4655 0008265 134.0887  24.0001 14.97993571  3630
ONEWEB-0387             
1 49313U 21090AL  21318.91667824 -.01082404  00000-0 -93120-1 0  9997
2 49313  87.2346 282.4557 0010868 150.7056 202.9390 15.00444936  3613
ONEWEB-0388             
1 49314U 21090AM  21318.91667824 -.01163668  00000-0 -13144+0 0  9996
2 49314  87.4596 282.8120 0007956 157.1948 190.7336 14.89570389  3609
